start=new Date('2021-12-09T00:00:00.000Z').valueOf();
sats=[{"OBJECT_NAME":"STARLINK-1057","APOAPSIS":"548.471","GP_ID":"191362509","ELEMENT_SET_NO":"999","LAUNCH_DATE":"2019-11-11","FILE":"3235972","INCLINATION":"53.0543","REF_FRAME":"TEME","MEAN_MOTION":"15.06395192","ARG_OF_PERICENTER":"50.6221","MEAN_ANOMALY":"309.4927","CLASSIFICATION_TYPE":"U","PERIOD":"95.592","DECAY_DATE":null,"ECCENTRICITY":"0.00017940","TLE_LINE1":"1 44762U 19074BB  21342.67571012 -.00000709  00000-0 -28721-4 0  9997","EPHEMERIS_TYPE":"0","MEAN_ELEMENT_THEORY":"SGP4","MEAN_MOTION_DOT":"-0.00000709","OBJECT_TYPE":"PAYLOAD","OBJECT_ID":"2019-074BB","SEMIMAJOR_AXIS":"6925.363","REV_AT_EPOCH":"11454","SITE":"AFETR","TIME_SYSTEM":"UTC","NORAD_CAT_ID":"44762","RCS_SIZE":"LARGE","CENTER_NAME":"EARTH","RA_OF_ASC_NODE":"333.8782","COUNTRY_CODE":"US","BSTAR":"-0.00002872100000","MEAN_MOTION_DDOT":"0.0000000000000","EPOCH":"2021-12-08T16:13:01.354368","PERIAPSIS":"545.986","TLE_LINE2":"2 44762  53.0543 333.8782 0001794  50.6221 309.4927 15.06395192114546"},{"MEAN_ANOMALY":"301.1016","ARG_OF_PERICENTER":"59.0125","MEAN_MOTION":"15.06396614","FILE":"3235972","REF_FRAME":"TEME","INCLINATION":"53.0562","ELEMENT_SET_NO":"999","LAUNCH_DATE":"2019-11-11","GP_ID":"191363260","APOAPSIS":"548.294","OBJECT_NAME":"STARLINK-1058","MEAN_ELEMENT_THEORY":"SGP4","EPHEMERIS_TYPE":"0","TLE_LINE1":"1 44763U 19074BC  21342.76232923 -.00000388  00000-0 -71554-5 0  9999","ECCENTRICITY":"0.00015450","DECAY_DATE":null,"PERIOD":"95.592","CLASSIFICATION_TYPE":"U","RCS_SIZE":"LARGE","TIME_SYSTEM":"UTC","NORAD_CAT_ID":"44763","SITE":"AFETR","REV_AT_EPOCH":"11428","SEMIMAJOR_AXIS":"6925.359","OBJECT_ID":"2019-074BC","MEAN_MOTION_DOT":"-0.00000388","OBJECT_TYPE":"PAYLOAD","TLE_LINE2":"2 44763  53.0562 353.5002 0001545  59.0125 301.1016 15.06396614114281","EPOCH":"2021-12-08T18:17:45.245472","PERIAPSIS":"546.154","BSTAR":"-0.00000715540000","MEAN_MOTION_DDOT":"0.0000000000000","RA_OF_ASC_NODE":"353.5002","COUNTRY_CODE":"US","CENTER_NAME":"EARTH"},{"SEMIMAJOR_AXIS":"6925.349","OBJECT_ID":"2019-074BD","OBJECT_TYPE":"PAYLOAD","MEAN_MOTION_DOT":"0.00001195","RCS_SIZE":"LARGE","NORAD_CAT_ID":"44764","TIME_SYSTEM":"UTC","SITE":"AFETR","REV_AT_EPOCH":"11458","CENTER_NAME":"EARTH","TLE_LINE2":"2 44764  53.0554 332.7106 0001590  69.9655 290.1505 15.06399696114581","PERIAPSIS":"546.113","EPOCH":"2021-12-08T22:29:51.683136","MEAN_MOTION_DDOT":"0.0000000000000","BSTAR":"0.00009907900000","COUNTRY_CODE":"US","RA_OF_ASC_NODE":"332.7106","GP_ID":"191362008","APOAPSIS":"548.316","OBJECT_NAME":"STARLINK-1059","MEAN_ANOMALY":"290.1505","ARG_OF_PERICENTER":"69.9655","MEAN_MOTION":"15.06399696","FILE":"3235972","INCLINATION":"53.0554","REF_FRAME":"TEME","LAUNCH_DATE":"2019-11-11","ELEMENT_SET_NO":"999","ECCENTRICITY":"0.00015900","DECAY_DATE":null,"PERIOD":"95.592","CLASSIFICATION_TYPE":"U","MEAN_ELEMENT_THEORY":"SGP4","EPHEMERIS_TYPE":"0","TLE_LINE1":"1 44764U 19074BD  21342.93740374  .00001195  00000-0  99079-4 0  9999"},{"CENTER_NAME":"EARTH","BSTAR":"0.00002670100000","MEAN_MOTION_DDOT":"0.0000000000000","RA_OF_ASC_NODE":"332.6172","COUNTRY_CODE":"US","TLE_LINE2":"2 44765  53.0549 332.6172 0001447  66.5115 293.6026 15.06394989114589","EPOCH":"2021-12-08T22:56:24.510336","PERIAPSIS":"546.227","OBJECT_TYPE":"PAYLOAD","MEAN_MOTION_DOT":"0.00000116","SEMIMAJOR_AXIS":"6925.364","OBJECT_ID":"2019-074BE","SITE":"AFETR","REV_AT_EPOCH":"11458","RCS_SIZE":"LARGE","NORAD_CAT_ID":"44765","TIME_SYSTEM":"UTC","DECAY_DATE":null,"PERIOD":"95.592","CLASSIFICATION_TYPE":"U","ECCENTRICITY":"0.00014470","MEAN_ELEMENT_THEORY":"SGP4","TLE_LINE1":"1 44765U 19074BE  21342.95583924  .00000116  00000-0  26701-4 0  9992","EPHEMERIS_TYPE":"0","APOAPSIS":"548.231","OBJECT_NAME":"STARLINK-1060","GP_ID":"191362258","FILE":"3235972","INCLINATION":"53.0549","REF_FRAME":"TEME","ELEMENT_SET_NO":"999","LAUNCH_DATE":"2019-11-11","ARG_OF_PERICENTER":"66.5115","MEAN_ANOMALY":"293.6026","MEAN_MOTION":"15.06394989"},{"SEMIMAJOR_AXIS":"6925.339","OBJECT_ID":"2019-074BF","MEAN_MOTION_DOT":"0.00001516","OBJECT_TYPE":"PAYLOAD","RCS_SIZE":"LARGE","NORAD_CAT_ID":"44766","TIME_SYSTEM":"UTC","SITE":"AFETR","REV_AT_EPOCH":"11428","CENTER_NAME":"EARTH","TLE_LINE2":"2 44766  53.0546 353.5142 0001220  68.7016 291.4103 15.06402996114286","PERIAPSIS":"546.359","EPOCH":"2021-12-08T18:07:07.323168","MEAN_MOTION_DDOT":"0.0000000000000","BSTAR":"0.00012062000000","COUNTRY_CODE":"US","RA_OF_ASC_NODE":"353.5142","GP_ID":"191363010","APOAPSIS":"548.049","OBJECT_NAME":"STARLINK-1061","MEAN_ANOMALY":"291.4103","ARG_OF_PERICENTER":"68.7016","MEAN_MOTION":"15.06402996","INCLINATION":"53.0546","FILE":"3235972","REF_FRAME":"TEME","LAUNCH_DATE":"2019-11-11","ELEMENT_SET_NO":"999","ECCENTRICITY":"0.00012200","PERIOD":"95.592","DECAY_DATE":null,"CLASSIFICATION_TYPE":"U","MEAN_ELEMENT_THEORY":"SGP4","TLE_LINE1":"1 44766U 19074BF  21342.75494587  .00001516  00000-0  12062-3 0  9996","EPHEMERIS_TYPE":"0"},{"MEAN_ELEMENT_THEORY":"SGP4","TLE_LINE1":"1 44767U 19074BG  21342.74758377  .00000088  00000-0  24793-4 0  9994","EPHEMERIS_TYPE":"0","DECAY_DATE":null,"PERIOD":"95.592","CLASSIFICATION_TYPE":"U","ECCENTRICITY":"0.00015900","INCLINATION":"53.0551","FILE":"3235972","REF_FRAME":"TEME","ELEMENT_SET_NO":"999","LAUNCH_DATE":"2019-11-11","ARG_OF_PERICENTER":"60.7717","MEAN_ANOMALY":"299.3431","MEAN_MOTION":"15.06396062","APOAPSIS":"548.327","OBJECT_NAME":"STARLINK-1062","GP_ID":"191362760","BSTAR":"0.00002479300000","MEAN_MOTION_DDOT":"0.0000000000000","RA_OF_ASC_NODE":"353.5533","COUNTRY_CODE":"US","TLE_LINE2":"2 44767  53.0551 353.5533 0001590  60.7717 299.3431 15.06396062114284","EPOCH":"2021-12-08T17:56:31.237728","PERIAPSIS":"546.124","CENTER_NAME":"EARTH","SITE":"AFETR","REV_AT_EPOCH":"11428","RCS_SIZE":"LARGE","NORAD_CAT_ID":"44767","TIME_SYSTEM":"UTC","OBJECT_TYPE":"PAYLOAD","MEAN_MOTION_DOT":"0.00000088","SEMIMAJOR_AXIS":"6925.361","OBJECT_ID":"2019-074BG"},{"PERIAPSIS":"546.179","EPOCH":"2021-12-08T18:28:22.512864","TLE_LINE2":"2 44768  53.0547 353.4591 0001531  61.4264 298.6879 15.06391519114294","COUNTRY_CODE":"US","RA_OF_ASC_NODE":"353.4591","MEAN_MOTION_DDOT":"0.0000000000000","BSTAR":"0.00006098100000","CENTER_NAME":"EARTH","NORAD_CAT_ID":"44768","TIME_SYSTEM":"UTC","RCS_SIZE":"LARGE","REV_AT_EPOCH":"11429","SITE":"AFETR","OBJECT_ID":"2019-074BH","SEMIMAJOR_AXIS":"6925.375","OBJECT_TYPE":"PAYLOAD","MEAN_MOTION_DOT":"0.00000627","EPHEMERIS_TYPE":"0","TLE_LINE1":"1 44768U 19074BH  21342.76970501  .00000627  00000-0  60981-4 0  9990","MEAN_ELEMENT_THEORY":"SGP4","ECCENTRICITY":"0.00015310","CLASSIFICATION_TYPE":"U","DECAY_DATE":null,"PERIOD":"95.593","MEAN_MOTION":"15.06391519","MEAN_ANOMALY":"298.6879","ARG_OF_PERICENTER":"61.4264","LAUNCH_DATE":"2019-11-11","ELEMENT_SET_NO":"999","FILE":"3235972","REF_FRAME":"TEME","INCLINATION":"53.0547","GP_ID":"191361508","OBJECT_NAME":"STARLINK-1063","APOAPSIS":"548.300"},{"EPHEMERIS_TYPE":"0","TLE_LINE1":"1 44769U 19074BJ  21342.91740041  .00050653  00000-0  63143-3 0  9998","MEAN_ELEMENT_THEORY":"SGP4","ECCENTRICITY":"0.00014580","CLASSIFICATION_TYPE":"U","DECAY_DATE":null,"PERIOD":"92.342","MEAN_MOTION":"15.59421210","MEAN_ANOMALY":"311.3502","ARG_OF_PERICENTER":"48.7636","LAUNCH_DATE":"2019-11-11","ELEMENT_SET_NO":"999","REF_FRAME":"TEME","FILE":"3235972","INCLINATION":"53.0569","GP_ID":"191361758","OBJECT_NAME":"STARLINK-1064","APOAPSIS":"390.320","PERIAPSIS":"388.346","EPOCH":"2021-12-08T22:01:03.395424","TLE_LINE2":"2 44769  53.0569 316.8714 0001458  48.7636 311.3502 15.59421210114889","COUNTRY_CODE":"US","RA_OF_ASC_NODE":"316.8714","MEAN_MOTION_DDOT":"0.0000000000000","BSTAR":"0.00063143000000","CENTER_NAME":"EARTH","TIME_SYSTEM":"UTC","NORAD_CAT_ID":"44769","RCS_SIZE":"LARGE","REV_AT_EPOCH":"11488","SITE":"AFETR","OBJECT_ID":"2019-074BJ","SEMIMAJOR_AXIS":"6767.468","MEAN_MOTION_DOT":"0.00050653","OBJECT_TYPE":"PAYLOAD"},{"RA_OF_ASC_NODE":"347.9396","COUNTRY_CODE":"US","BSTAR":"0.00031271000000","MEAN_MOTION_DDOT":"0.0000000000000","EPOCH":"2021-12-08T11:52:20.040096","PERIAPSIS":"537.397","TLE_LINE2":"2 44770  53.0034 347.9396 0000941 106.5679 253.5414 15.09395658114313","CENTER_NAME":"EARTH","REV_AT_EPOCH":"11431","SITE":"AFETR","TIME_SYSTEM":"UTC","NORAD_CAT_ID":"44770","RCS_SIZE":"LARGE","OBJECT_TYPE":"PAYLOAD","MEAN_MOTION_DOT":"0.00004768","OBJECT_ID":"2019-074BK","SEMIMAJOR_AXIS":"6916.182","EPHEMERIS_TYPE":"0","TLE_LINE1":"1 44770U 19074BK  21342.49467639  .00004768  00000-0  31271-3 0  9995","MEAN_ELEMENT_THEORY":"SGP4","CLASSIFICATION_TYPE":"U","DECAY_DATE":null,"PERIOD":"95.402","ECCENTRICITY":"0.00009410","ELEMENT_SET_NO":"999","LAUNCH_DATE":"2019-11-11","REF_FRAME":"TEME","FILE":"3235746","INCLINATION":"53.0034","MEAN_MOTION":"15.09395658","MEAN_ANOMALY":"253.5414","ARG_OF_PERICENTER":"106.5679","OBJECT_NAME":"STARLINK-1065","APOAPSIS":"538.698","GP_ID":"191334272"},{"RCS_SIZE":"LARGE","NORAD_CAT_ID":"44771","TIME_SYSTEM":"UTC","SITE":"AFETR","REV_AT_EPOCH":"11428","SEMIMAJOR_AXIS":"6925.371","OBJECT_ID":"2019-074BL","OBJECT_TYPE":"PAYLOAD","MEAN_MOTION_DOT":"0.00001647","TLE_LINE2":"2 44771  53.0552 353.5082 0001677  63.3354 296.7806 15.06392749114286","EPOCH":"2021-12-08T18:12:27.390240","PERIAPSIS":"546.074","BSTAR":"0.00012949000000","MEAN_MOTION_DDOT":"0.0000000000000","RA_OF_ASC_NODE":"353.5082","COUNTRY_CODE":"US","CENTER_NAME":"EARTH","MEAN_ANOMALY":"296.7806","ARG_OF_PERICENTER":"63.3354","MEAN_MOTION":"15.06392749","INCLINATION":"53.0552","FILE":"3235972","REF_FRAME":"TEME","ELEMENT_SET_NO":"999","LAUNCH_DATE":"2019-11-11","GP_ID":"191363261","APOAPSIS":"548.397","OBJECT_NAME":"STARLINK-1067","MEAN_ELEMENT_THEORY":"SGP4","EPHEMERIS_TYPE":"0","TLE_LINE1":"1 44771U 19074BL  21342.75865035  .00001647  00000-0  12949-3 0  9991","ECCENTRICITY":"0.00016770","DECAY_DATE":null,"PERIOD":"95.593","CLASSIFICATION_TYPE":"U"}];
